FLOCK 3P-70             
1 41980U 17008AJ  18004.91992106  .00001608  00000-0  69836-4 0  9999
2 41980  97.4746  70.7274 0007928 197.8925 162.2034 15.23750705 49089
FLOCK 3P-73             
1 41981U 17008AK  18004.86377083  .00001416  00000-0  61914-4 0  9991
2 41981  97.4746  70.6510 0008108 199.3375 160.7556 15.23731352 49202
FLOCK 3P-88             
1 41982U 17008AL  18004.91672721  .00001741  00000-0  75366-4 0  9992
2 41982  97.4739  70.7206 0007939 197.9858 162.1099 15.23764231 48185
FLOCK 3P-85             
1 41983U 17008AM  18005.16474100  .00001932  00000-0  83154-4 0  9998
2 41983  97.4741  71.0110 0007824 200.8103 159.2816 15.23812986 49127
FLOCK 3P-79             
1 41984U 17008AN  18004.63979447  .00001119  00000-0  49457-4 0  9999
2 41984  97.4747  70.4859 0007447 201.9243 158.1676 15.23794168 49049
FLOCK 3P-86             
1 41985U 17008AP  18005.16652002  .00001050  00000-0  46623-4 0  9990
2 41985  97.4743  71.0019 0007499 199.3594 160.7359 15.23779984 49111
FLOCK 3P-36             
1 41986U 17008AQ  18004.84061933  .00001054  00000-0  46736-4 0  9991
2 41986  97.4728  70.5957 0007286 197.6279 162.4706 15.23798183 48559
FLOCK 3P-30             
1 41987U 17008AR  18004.76653246  .00001179  00000-0  52006-4 0  9992
2 41987  97.4728  70.5422 0007156 199.2618 160.8350 15.23762824 49010
FLOCK 3P-34             
1 41988U 17008AS  18005.17214153  .00001069  00000-0  47370-4 0  9995
2 41988  97.4722  70.9018 0007437 193.9974 166.1058 15.23796605 48600
FLOCK 3P-35             
1 41989U 17008AT  18004.91254614  .00001026  00000-0  45633-4 0  9996
2 41989  97.4722  70.6342 0007583 195.1222 164.9789 15.23772122 48560
FLOCK 3P-33             
1 41990U 17008AU  18004.77589922  .00000962  00000-0  42929-4 0  9998
2 41990  97.4724  70.5172 0007187 196.2168 163.8840 15.23801626 48541
LEMUR-2-SATCHMO         
1 41991U 17008AV  18004.80286542  .00001011  00000-0  46094-4 0  9998
2 41991  97.4714  70.3128 0007255 199.7039 160.3919 15.22928038 48535
LEMUR-2-MIA-GRACE       
1 41992U 17008AW  18004.88285065  .00001525  00000-0  67098-4 0  9993
2 41992  97.4718  70.5241 0007173 199.6279 160.4683 15.23399121 48559
LEMUR-2-SMITA-SHARAD    
1 41993U 17008AX  18004.71319430  .00001108  00000-0  49981-4 0  9998
2 41993  97.4713  70.2816 0007171 199.8494 160.2465 15.23096333 48521
LEMUR-2-SPIRE-MINIONS   
1 41994U 17008AY  18005.15436653  .00001466  00000-0  64691-4 0  9997
2 41994  97.4714  70.7646 0007270 197.8143 162.2840 15.23358646 48592
LEMUR-2-RDEATON         
1 41995U 17008AZ  18004.90261646  .00001134  00000-0  51006-4 0  9996
2 41995  97.4715  70.4921 0007911 215.2642 144.8072 15.23151902 49239
LEMUR-2-NOGUECORREIG    
1 41996U 17008BA  18005.20595148  .00001368  00000-0  60528-4 0  9996
2 41996  97.4722  70.8621 0007868 214.2461 145.8269 15.23368216 48504
LEMUR-2-JOBANPUTRA      
1 41997U 17008BB  18004.72335182  .00001133  00000-0  50486-4 0  9995
2 41997  97.4724  70.4369 0007819 215.8524 144.2189 15.23496960 48529
LEMUR-2-TACHIKOMA       
1 41998U 17008BC  18004.91083015  .00001078  00000-0  48784-4 0  9998
2 41998  97.4713  70.4785 0007821 215.6275 144.4440 15.23050125 48479
BGUSAT                  
1 41999U 17008BD  18004.89164824  .00001656  00000-0  71632-4 0  9994
2 41999  97.4728  70.6887 0007728 216.2092 143.8622 15.23852666 48555
DIDO-2                  
1 42000U 17008BE  18004.86370751  .00000910  00000-0  41895-4 0  9993
2 42000  97.4710  70.3818 0007766 216.7448 143.3256 15.22849770 48541
FLOCK 3P-49             
1 42001U 17008BF  18005.15679704  .00001075  00000-0  47683-4 0  9991
2 42001  97.4725  70.9314 0007418 215.1337 144.9412 15.23758876 49122
FLOCK 3P-67             
1 42002U 17008BG  18004.89447729  .00002025  00000-0  86748-4 0  9993
2 42002  97.4719  70.6623 0007339 214.8840 145.1917 15.23921594 49248
FLOCK 3P-68             
1 42003U 17008BH  18004.83535805  .00001116  00000-0  49348-4 0  9996
2 42003  97.4721  70.5824 0007500 214.0437 146.0320 15.23799176 48873
FLOCK 3P-41             
1 42004U 17008BJ  18005.15192797  .00000954  00000-0  42611-4 0  9997
2 42004  97.4721  70.9189 0007280 214.9877 145.0883 15.23784511 49112
FLOCK 3P-45             
1 42005U 17008BK  18005.15255286  .00002065  00000-0  88393-4 0  9993
2 42005  97.4718  70.9293 0007238 215.0044 145.0718 15.23932429 49273
FLOCK 3P-48             
1 42006U 17008BL  18004.82682438  .00001034  00000-0  45951-4 0  9998
2 42006  97.4727  70.6066 0007122 216.9884 143.0863 15.23769653 49011
FLOCK 3P-43             
1 42007U 17008BM  18004.76122991  .00000647  00000-0  29973-4 0  9990
2 42007  97.4724  70.5289 0007087 217.1172 142.9576 15.23677926 49221
FLOCK 3P-42             
1 42008U 17008BN  18004.75966351  .00001288  00000-0  56545-4 0  9993
2 42008  97.4721  70.5233 0007111 217.0423 143.0324 15.23766549 49148
FLOCK 3P-61             
1 42009U 17008BP  18004.75870597  .00001365  00000-0  59777-4 0  9996
2 42009  97.4723  70.5314 0006927 219.4940 140.5793 15.23749943 49191
FLOCK 3P-40             
1 42010U 17008BQ  18005.21220525  .00001509  00000-0  65752-4 0  9990
2 42010  97.4716  70.9741 0006901 218.4758 141.5988 15.23747203 48521
FLOCK 3P-16             
1 42011U 17008BR  18004.87212617  .00001573  00000-0  68440-4 0  9993
2 42011  97.4717  70.6659 0006516 220.1580 139.9176 15.23737698 48418
FLOCK 3P-14             
1 42012U 17008BS  18004.87238158  .00001677  00000-0  72593-4 0  9991
2 42012  97.4726  70.6837 0006751 222.3382 137.7335 15.23819573 49037
FLOCK 3P-53             
1 42013U 17008BT  18005.20425303  .00001091  00000-0  48320-4 0  9991
2 42013  97.4713  70.9705 0006550 218.8833 141.1934 15.23780232 49087
FLOCK 3P-54             
1 42014U 17008BU  18004.87897568  .00001520  00000-0  66270-4 0  9991
2 42014  97.4719  70.6583 0006468 221.1683 138.9067 15.23718793 49245
PEASSS                  
1 42015U 17008BV  18004.92479221  .00001083  00000-0  48266-4 0  9999
2 42015  97.4704  70.7177 0005507 222.7122 137.3687 15.23583419 49053
AL-FARABI 1             
1 42016U 17008BW  18005.15293825  .00001318  00000-0  57576-4 0  9995
2 42016  97.4708  71.0390 0005437 222.1389 137.9431 15.23895610 49210
NAYIF-1 (EO-88)         
1 42017U 17008BX  18005.14954291  .00001347  00000-0  58726-4 0  9996
2 42017  97.4707  71.0404 0005392 222.4496 137.6325 15.23915296 49232
FLOCK 3P-23             
1 42018U 17008BY  18005.14042912  .00002057  00000-0  88574-4 0  9998
2 42018  97.4710  70.7565 0008403 192.7396 167.3630 15.23724680 48047
FLOCK 3P-76             
1 42019U 17008BZ  18004.91058142  .00001487  00000-0  64751-4 0  9992
2 42019  97.4747  70.7472 0007897 199.8734 160.2196 15.23780015 49072
FLOCK 3P-69             
1 42020U 17008CA  18004.84342328  .00001072  00000-0  47504-4 0  9995
2 42020  97.4746  70.6829 0007805 198.5547 161.5407 15.23783432 47955
FLOCK 3P-84             
1 42021U 17008CB  18005.11632202  .00001504  00000-0  65499-4 0  9993
2 42021  97.4742  70.9127 0008192 197.9501 162.1448 15.23763746 49117
FLOCK 3P-59             
1 42022U 17008CC  18004.91840209  .00002220  00000-0  94968-4 0  9998
2 42022  97.4718  70.6302 0007591 198.2925 161.8040 15.23861671 48107
FLOCK 3P-32             
1 42023U 17008CD  18004.79229692  .00001578  00000-0  68666-4 0  9993
2 42023  97.4724  70.4952 0007673 194.9035 165.1977 15.23729265 49222
FLOCK 3P-71             
1 42024U 17008CE  18004.87541746  .00002043  00000-0  87938-4 0  9991
2 42024  97.4742  70.6466 0007880 200.4080 159.6843 15.23748035 48100
FLOCK 3P-77             
1 42025U 17008CF  18005.17443342  .00000997  00000-0  44417-4 0  9990
2 42025  97.4744  70.9963 0007841 199.1483 160.9461 15.23772356 49123
FLOCK 3P-80             
1 42026U 17008CG  18004.89424328  .00001804  00000-0  77689-4 0  9997
2 42026  97.4740  70.7529 0007432 199.8306 160.2643 15.23893052 47224
FLOCK 3P-66             
1 42027U 17008CH  18004.76903383  .00001598  00000-0  69365-4 0  9999
2 42027  97.4726  70.5305 0007517 213.4719 146.6044 15.23780152 49179
FLOCK 3P-65             
1 42028U 17008CJ  18005.16102928  .00000973  00000-0  43403-4 0  9992
2 42028  97.4725  70.9250 0007410 212.3795 147.6988 15.23785895 49139
FLOCK 3P-50             
1 42029U 17008CK  18005.15756079  .00001041  00000-0  46220-4 0  9991
2 42029  97.4727  70.9388 0007197 214.6437 145.4332 15.23783535 48456
FLOCK 3P-52             
1 42030U 17008CL  18004.76561090  .00001367  00000-0  59797-4 0  9990
2 42030  97.4725  70.5296 0007263 215.4345 144.6410 15.23771382 49165
FLOCK 3P-46             
1 42031U 17008CM  18004.82609514  .00001240  00000-0  54525-4 0  9996
2 42031  97.4722  70.5927 0007184 216.2599 143.8151 15.23766740 49206
FLOCK 3P-47             
1 42032U 17008CN  18004.76214650  .00001211  00000-0  53331-4 0  9995
2 42032  97.4720  70.5234 0007108 217.0485 143.0262 15.23765834 49045
FLOCK 3P-44             
1 42033U 17008CP  18005.15129526  .00000672  00000-0  31022-4 0  9990
2 42033  97.4725  70.9329 0007183 218.2969 141.7758 15.23659722 47853
FLOCK 3P-64             
1 42034U 17008CQ  18004.82245129  .00001318  00000-0  57781-4 0  9990
2 42034  97.4720  70.5893 0006981 219.0114 141.0621 15.23750409 49226
FLOCK 3P-63             
1 42035U 17008CR  18005.14840806  .00002811  00000-0  11997-3 0  9997
2 42035  97.4714  70.9138 0006988 217.2037 142.8716 15.23727303 47248
FLOCK 3P-62             
1 42036U 17008CS  18004.86303430  .00002127  00000-0  90764-4 0  9993
2 42036  97.4717  70.6895 0006952 220.5315 139.5405 15.24009191 48402
FLOCK 3P-38             
1 42037U 17008CT  18004.81873104  .00002798  00000-0  11937-3 0  9997
2 42037  97.4717  70.5914 0006657 219.1829 140.8927 15.23738590 49170
FLOCK 3P-39             
1 42038U 17008CU  18004.75062914  .00001342  00000-0  58835-4 0  9993
2 42038  97.4716  70.5137 0006861 220.2261 139.8469 15.23722653 49113
